H1 CPF 01  gfz 2021 07 16 12  6972 terrasarx 
H2 0702601  6201 31698    2021 07 16 12 59 42 2021 07 21 00 00 42   120 1 1  0 0 0
H9
10 0 59415  32382.000000  0   -1645520.692    394002.288  -6684077.841
10 0 59415  32502.000000  0   -2237380.796   1051142.732  -6436448.438
10 0 59415  32622.000000  0   -2779040.379   1699986.959  -6076483.107
10 0 59415  32742.000000  0   -3261330.648   2328310.615  -5610387.583
10 0 59415  32862.000000  0   -3676301.953   2924072.358  -5046215.877
10 0 59415  32982.000000  0   -4017359.388   3475644.114  -4393742.552
10 0 59415  33102.000000  0   -4279373.036   3972039.192  -3664302.926
10 0 59415  33222.000000  0   -4458759.834   4403134.080  -2870605.003
10 0 59415  33342.000000  0   -4553537.525   4759879.468  -2026514.464
10 0 59415  33462.000000  0   -4563347.570   5034494.454  -1146815.106
10 0 59415  33582.000000  0   -4489446.876   5220640.633   -246948.640
10 0 59415  33702.000000  0   -4334665.024   5313569.235    657262.773
10 0 59415  33822.000000  0   -4103330.171   5310237.552   1549901.603
10 0 59415  33942.000000  0   -3801164.204   5209391.475   2415246.009
10 0 59415  34062.000000  0   -3435148.419   5011610.025   3238056.088
10 0 59415  34182.000000  0   -3013364.519   4719313.117   4003848.681
10 0 59415  34302.000000  0   -2544816.651   4336732.978   4699156.520
10 0 59415  34422.000000  0   -2039237.465   3869848.857   5311767.053
10 0 59415  34542.000000  0   -1506883.693   3326286.980   5830935.968
10 0 59415  34662.000000  0    -958325.581   2715188.814   6247571.524
10 0 59415  34782.000000  0    -404235.871   2047050.615   6554387.133
10 0 59415  34902.000000  0     144817.047   1333539.667   6746022.314
10 0 59415  35022.000000  0     678570.409    587287.858   6819131.354
10 0 59415  35142.000000  0    1187257.999   -178332.097   6772437.077
10 0 59415  35262.000000  0    1661787.750   -949445.231   6606752.625
10 0 59415  35382.000000  0    2093903.949  -1711925.328   6324968.421
10 0 59415  35502.000000  0    2476331.411  -2451652.978   5932005.783
10 0 59415  35622.000000  0    2802900.078  -3154778.311   5434736.451
10 0 59415  35742.000000  0    3068646.711  -3807982.761   4841867.925
10 0 59415  35862.000000  0    3269892.423  -4398735.294   4163796.970
10 0 59415  35982.000000  0    3404295.177  -4915539.289   3412431.442
10 0 59415  36102.000000  0    3470874.470  -5348162.794   2600982.526
10 0 59415  36222.000000  0    3470008.330  -5687848.064   1743731.272
10 0 59415  36342.000000  0    3403401.612  -5927494.504    855773.111
10 0 59415  36462.000000  0    3274027.026  -6061809.076    -47254.038
10 0 59415  36582.000000  0    3086041.192  -6087423.763   -949452.321
10 0 59415  36702.000000  0    2844674.812  -6002973.345  -1834954.520
10 0 59415  36822.000000  0    2556101.315  -5809131.786  -2688210.323
10 0 59415  36942.000000  0    2227288.672  -5508608.734  -3494266.065
10 0 59415  37062.000000  0    1865836.027  -5106104.411  -4239030.944
10 0 59415  37182.000000  0    1479800.940  -4608224.316  -4909521.500
10 0 59415  37302.000000  0    1077523.285  -4023359.696  -5494082.121
10 0 59415  37422.000000  0     667448.504  -3361536.339  -5982579.652
10 0 59415  37542.000000  0     257953.521  -2634234.804  -6366568.487
10 0 59415  37662.000000  0    -142820.685  -1854186.675  -6639425.112
10 0 59415  37782.000000  0    -527126.604  -1035150.532  -6796451.706
10 0 59415  37902.000000  0    -887755.132   -191671.219  -6834948.818
10 0 59415  38022.000000  0   -1218166.888    661173.922  -6754255.844
10 0 59415  38142.000000  0   -1512608.010   1508037.460  -6555760.582
10 0 59415  38262.000000  0   -1766207.959   2333571.201  -6242877.677
10 0 59415  38382.000000  0   -1975059.179   3122697.988  -5820997.504
10 0 59415  38502.000000  0   -2136277.615   3860884.478  -5297403.071
10 0 59415  38622.000000  0   -2248042.374   4534408.838  -4681155.877
10 0 59415  38742.000000  0   -2309614.656   5130620.215  -3982949.970
10 0 59415  38862.000000  0   -2321334.067   5638182.696  -3214934.818
10 0 59415  38982.000000  0   -2284592.047   6047298.827  -2390511.472
10 0 59415  39102.000000  0   -2201783.455   6349909.895  -1524103.304
10 0 59415  39222.000000  0   -2076237.027   6539864.656   -630902.986
10 0 59415  39342.000000  0   -1912125.840   6613052.999    273395.798
10 0 59415  39462.000000  0   -1714359.812   6567503.712   1172880.855
10 0 59415  39582.000000  0   -1488461.577   6403435.714   2051713.545
10 0 59415  39702.000000  0   -1240429.245   6123262.661   2894416.867
10 0 59415  39822.000000  0    -976591.158   5731554.672   3686154.584
10 0 59415  39942.000000  0    -703456.287   5234958.822   4412997.453
10 0 59415  40062.000000  0    -427563.165   4642078.016   5062173.379
10 0 59415  40182.000000  0    -155329.454   3963309.504   5622290.552
10 0 59415  40302.000000  0     107090.700   3210655.053   6083533.285
10 0 59415  40422.000000  0     353940.118   2397500.103   6437830.074
10 0 59415  40542.000000  0     579980.475   1538370.069   6678988.281
10 0 59415  40662.000000  0     780600.220    648667.067   6802796.675
10 0 59415  40782.000000  0     951906.304   -255607.056   6807093.349
10 0 59415  40902.000000  0    1090798.637  -1158137.177   6691802.026
10 0 59415  41022.000000  0    1195026.053  -2042589.050   6458933.918
10 0 59415  41142.000000  0    1263222.915  -2892904.696   6112555.406
10 0 59415  41262.000000  0    1294925.583  -3693595.923   5658721.239
10 0 59415  41382.000000  0    1290568.236  -4430028.808   5105372.802
10 0 59415  41502.000000  0    1251459.817  -5088694.439   4462205.334
10 0 59415  41622.000000  0    1179741.291  -5657464.492   3740504.809
10 0 59415  41742.000000  0    1078324.001  -6125825.021   2952952.556
10 0 59415  41862.000000  0     950810.262  -6485079.980   2113402.073
10 0 59415  41982.000000  0     801396.984  -6728521.944   1236633.597
10 0 59415  42102.000000  0     634766.005  -6851565.713    338089.339
10 0 59415  42222.000000  0     455962.824  -6851841.403   -566407.106
10 0 59415  42342.000000  0     270266.267  -6729239.726  -1460940.414
10 0 59415  42462.000000  0      83054.769  -6485910.600  -2329792.005
10 0 59415  42582.000000  0    -100328.095  -6126217.937  -3157722.248
10 0 59415  42702.000000  0    -274706.034  -5656651.620  -3930241.997
10 0 59415  42822.000000  0    -435197.074  -5085697.687  -4633867.471
10 0 59415  42942.000000  0    -577331.763  -4423671.603  -5256351.735
10 0 59415  43062.000000  0    -697160.080  -3682520.670  -5786890.813
10 0 59415  43182.000000  0    -791344.553  -2875599.364  -6216301.731
10 0 59415  43302.000000  0    -857238.086  -2017422.885  -6537170.508
10 0 59415  43422.000000  0    -892945.367  -1123404.115  -6743968.559
10 0 59415  43542.000000  0    -897367.176   -209579.090  -6833138.417
10 0 59415  43662.000000  0    -870226.333    707676.180  -6803147.860
10 0 59415  43782.000000  0    -812075.244   1611931.638  -6654512.514
10 0 59415  43902.000000  0    -724285.517   2486989.897  -6389787.925
10 0 59415  44022.000000  0    -609019.292   3317169.722  -6013531.390
10 0 59415  44142.000000  0    -469182.374   4087584.420  -5532232.658
10 0 59415  44262.000000  0    -308359.793   4784408.583  -4954212.235
10 0 59415  44382.000000  0    -130735.399   5395130.259  -4289489.358
10 0 59415  44502.000000  0      59003.584   5908783.758  -3549618.441
10 0 59415  44622.000000  0     255775.611   6316156.801  -2747496.133
10 0 59415  44742.000000  0     454225.128   6609968.000  -1897141.925
10 0 59415  44862.000000  0     648851.659   6785010.153  -1013454.504
10 0 59415  44982.000000  0     834144.725   6838254.142   -111948.062
10 0 59415  45102.000000  0    1004721.263   6768910.237    791526.060
10 0 59415  45222.000000  0    1155461.699   6578443.684   1681066.155
10 0 59415  45342.000000  0    1281640.022   6270545.417   2541008.176
10 0 59415  45462.000000  0    1379045.672   5851059.072   3356209.201
10 0 59415  45582.000000  0    1444094.506   5327865.288   4112321.679
10 0 59415  45702.000000  0    1473926.587   4710725.444   4796050.529
10 0 59415  45822.000000  0    1466486.191   4011088.559   5395391.014
10 0 59415  45942.000000  0    1420582.684   3241867.114   5899834.894
10 0 59415  46062.000000  0    1335933.427   2417192.194   6300549.806
10 0 59415  46182.000000  0    1213185.770   1552147.744   6590529.012
10 0 59415  46302.000000  0    1053918.882    662490.084   6764707.805
10 0 59415  46422.000000  0     860625.063   -235640.163   6820045.264
10 0 59415  46542.000000  0     636670.956  -1126009.387   6755575.093
10 0 59415  46662.000000  0     386238.749  -1992584.585   6572422.299
10 0 59415  46782.000000  0     114248.121  -2819821.916   6273785.002
10 0 59415  46902.000000  0    -173739.347  -3592947.256   5864881.013
10 0 59415  47022.000000  0    -471630.792  -4298220.630   5352859.658
10 0 59415  47142.000000  0    -772926.514  -4923182.796   4746684.317
10 0 59415  47262.000000  0   -1070857.612  -5456883.714   4056984.094
10 0 59415  47382.000000  0   -1358533.838  -5890085.105   3295870.818
10 0 59415  47502.000000  0   -1629097.284  -6215429.518   2476726.934
10 0 59415  47622.000000  0   -1875879.279  -6427574.542   1613969.619
10 0 59415  47742.000000  0   -2092557.146  -6523288.135    722792.240
10 0 59415  47862.000000  0   -2273304.512  -6501501.108   -181110.786
10 0 59415  47982.000000  0   -2412932.542  -6363316.273  -1081829.003
10 0 59415  48102.000000  0   -2507018.768  -6111973.713  -1963524.634
10 0 59415  48222.000000  0   -2552020.480  -5752773.454  -2810718.884
10 0 59415  48342.000000  0   -2545369.386  -5292957.186  -3608569.931
10 0 59415  48462.000000  0   -2485544.979  -4741552.084  -4343135.521
10 0 59415  48582.000000  0   -2372125.397  -4109182.749  -5001614.319
10 0 59415  48702.000000  0   -2205815.490  -3407857.156  -5572562.985
10 0 59415  48822.000000  0   -1988452.087  -2650731.509  -6046086.791
99
